H1 CPF  1  DLR 2021 02 07 10  5382 technosat            
H2  1704205 6203    42829 2021 02 07 00 00 00 2021 02 14 00 00 00    60 1 1  0 0 0
H9
10 0 59256  72000.000000  0      -3278536.302      -1799487.433      -5894673.301
10 0 59256  72060.000000  0      -3657972.683      -1861652.923      -5647543.209
10 0 59256  72120.000000  0      -4022602.354      -1912775.137      -5376615.121
10 0 59256  72180.000000  0      -4370799.446      -1952775.154      -5083025.945
10 0 59256  72240.000000  0      -4701005.331      -1981634.229      -4768008.053
10 0 59256  72300.000000  0      -5011735.700      -1999393.322      -4432884.377
10 0 59256  72360.000000  0      -5301587.404      -2006152.327      -4079063.088
10 0 59256  72420.000000  0      -5569244.996      -2002069.016      -3708031.881
10 0 59256  72480.000000  0      -5813486.917      -1987357.660      -3321351.848
10 0 59256  72540.000000  0      -6033191.284      -1962287.366      -2920651.028
10 0 59256  72600.000000  0      -6227341.260      -1927180.128      -2507617.637
10 0 59256  72660.000000  0      -6395029.999      -1882408.608      -2083993.018
10 0 59256  72720.000000  0      -6535465.120      -1828393.643      -1651564.298
10 0 59256  72780.000000  0      -6647972.641      -1765601.522      -1212156.800
10 0 59256  72840.000000  0      -6732000.396      -1694541.020       -767626.274
10 0 59256  72900.000000  0      -6787120.902      -1615760.199       -319850.952
10 0 59256  72960.000000  0      -6813033.647      -1529842.993        129276.523
10 0 59256  73020.000000  0      -6809566.749      -1437405.633        577857.258
10 0 59256  73080.000000  0      -6776678.005      -1339092.910       1023994.303
10 0 59256  73140.000000  0      -6714455.331      -1235574.304       1465800.837
10 0 59256  73200.000000  0      -6623116.578      -1127540.006       1901408.309
10 0 59256  73260.000000  0      -6503008.730      -1015696.857       2328974.490
10 0 59256  73320.000000  0      -6354606.495       -900764.217       2746691.381
10 0 59256  73380.000000  0      -6178510.317       -783469.778       3152792.974
10 0 59256  73440.000000  0      -5975443.777       -664545.354       3545562.833
10 0 59256  73500.000000  0      -5746250.356       -544722.699       3923341.417
10 0 59256  73560.000000  0      -5491889.646       -424729.392       4284533.055
10 0 59256  73620.000000  0      -5213433.106       -305284.783       4627612.596
10 0 59256  73680.000000  0      -4912059.345       -187095.988       4951131.739
10 0 59256  73740.000000  0      -4589048.968        -70853.997       5253725.018
10 0 59256  73800.000000  0      -4245779.002         42770.108       5534115.472
10 0 59256  73860.000000  0      -3883716.819        153128.768       5791119.930
10 0 59256  73920.000000  0      -3504413.704        259601.402       6023653.830
10 0 59256  73980.000000  0      -3109498.060        361597.693       6230735.618
10 0 59256  74040.000000  0      -2700668.359        458560.638       6411490.685
10 0 59256  74100.000000  0      -2279685.812        549969.407       6565154.969
10 0 59256  74160.000000  0      -1848366.700        635342.024       6691078.063
10 0 59256  74220.000000  0      -1408574.529        714237.807       6788725.777
10 0 59256  74280.000000  0       -962212.058        786259.560       6857682.268
10 0 59256  74340.000000  0       -511213.145        851055.511       6897651.777
10 0 59256  74400.000000  0        -57534.451        908320.996       6908459.853
10 0 59256  74460.000000  0        396852.928        957799.884       6890054.152
10 0 59256  74520.000000  0        849971.952        999285.762       6842504.785
10 0 59256  74580.000000  0       1299848.177       1032622.835       6766004.156
10 0 59256  74640.000000  0       1744518.295       1057706.544       6660866.332
10 0 59256  74700.000000  0       2182038.663       1074483.899       6527525.948
10 0 59256  74760.000000  0       2610493.792       1082953.535       6366536.668
10 0 59256  74820.000000  0       3028004.842       1083165.494       6178569.178
10 0 59256  74880.000000  0       3432738.001       1075220.701       5964408.591
10 0 59256  74940.000000  0       3822912.632       1059270.192       5724951.375
10 0 59256  75000.000000  0       4196809.234       1035514.047       5461201.887
10 0 59256  75060.000000  0       4552777.230       1004200.040       5174268.476
10 0 59256  75120.000000  0       4889242.567        965622.014       4865359.162
10 0 59256  75180.000000  0       5204715.101        920118.002       4535776.753
10 0 59256  75240.000000  0       5497795.566        868068.110       4186913.451
10 0 59256  75300.000000  0       5767182.174        809892.149       3820245.079
10 0 59256  75360.000000  0       6011676.817        746047.044       3437324.854
10 0 59256  75420.000000  0       6230190.716        677023.981       3039776.727
10 0 59256  75480.000000  0       6421749.564        603345.340       2629288.519
10 0 59256  75540.000000  0       6585498.351        525561.453       2207604.775
10 0 59256  75600.000000  0       6720705.629        444247.220       1776519.105
10 0 59256  75660.000000  0       6826767.010        359998.557       1337866.262
10 0 59256  75720.000000  0       6903208.061        273428.714        893514.129
10 0 59256  75780.000000  0       6949686.702        185164.474        445355.538
10 0 59256  75840.000000  0       6965994.950         95842.278         -4700.206
10 0 59256  75900.000000  0       6952059.814          6104.282       -454735.851
10 0 59256  75960.000000  0       6907943.627        -83405.615       -902834.646
10 0 59256  76020.000000  0       6833843.725       -172045.732      -1347088.880
10 0 59256  76080.000000  0       6730091.367       -259180.555      -1785608.353
10 0 59256  76140.000000  0       6597150.019       -344184.660      -2216528.674
10 0 59256  76200.000000  0       6435613.028       -426446.559      -2638019.437
10 0 59256  76260.000000  0       6246200.658       -505372.459      -3048292.223
10 0 59256  76320.000000  0       6029756.496       -580389.895      -3445608.350
10 0 59256  76380.000000  0       5787243.295       -650951.215      -3828286.356
10 0 59256  76440.000000  0       5519738.232       -716536.907      -4194709.172
10 0 59256  76500.000000  0       5228427.660       -776658.721      -4543330.892
10 0 59256  76560.000000  0       4914601.459       -830862.594      -4872683.180
10 0 59256  76620.000000  0       4579646.932       -878731.394      -5181381.333
10 0 59256  76680.000000  0       4225042.303       -919887.445      -5468129.920
10 0 59256  76740.000000  0       3852349.837       -953994.842      -5731728.003
10 0 59256  76800.000000  0       3463208.613       -980761.511      -5971073.886
10 0 59256  76860.000000  0       3059327.049       -999940.984      -6185169.391
10 0 59256  76920.000000  0       2642475.198      -1011333.887      -6373123.693
10 0 59256  76980.000000  0       2214476.846      -1014789.162      -6534156.678
10 0 59256  77040.000000  0       1777201.447      -1010205.062      -6667601.832
10 0 59256  77100.000000  0       1332555.941       -997529.915      -6772908.684
10 0 59256  77160.000000  0        882476.456       -976762.588      -6849644.812
10 0 59256  77220.000000  0        428919.890       -947952.624      -6897497.385
10 0 59256  77280.000000  0        -26144.515       -911200.127      -6916274.140
10 0 59256  77340.000000  0       -480743.517       -866655.413      -6905903.982
10 0 59256  77400.000000  0       -932908.301       -814518.381      -6866437.213
10 0 59256  77460.000000  0      -1380682.911       -755037.597      -6798045.195
10 0 59256  77520.000000  0      -1822132.548       -688509.088      -6701019.562
10 0 59256  77580.000000  0      -2255351.785       -615274.928      -6575770.943
10 0 59256  77640.000000  0      -2678472.567       -535721.565      -6422827.258
10 0 59256  77700.000000  0      -3089672.064       -450277.891      -6242831.675
10 0 59256  77760.000000  0      -3487180.445       -359413.074      -6036540.184
10 0 59256  77820.000000  0      -3869288.537       -263634.159      -5804818.651
10 0 59256  77880.000000  0      -4234355.186       -163483.431      -5548639.337
10 0 59256  77940.000000  0      -4580814.283        -59535.583      -5269077.046
10 0 59256  78000.000000  0      -4907181.533         47605.290      -4967304.905
10 0 59256  78060.000000  0      -5212060.965        157308.892      -4644589.745
10 0 59256  78120.000000  0      -5494151.126        268922.146      -4302287.058
10 0 59256  78180.000000  0      -5752250.882        381772.794      -3941835.466
10 0 59256  78240.000000  0      -5985264.718        495173.064      -3564750.852
10 0 59256  78300.000000  0      -6192207.693        608423.498      -3172620.191
10 0 59256  78360.000000  0      -6372209.879        720816.916      -2767094.931
10 0 59256  78420.000000  0      -6524520.246        831642.415      -2349884.095
10 0 59256  78480.000000  0      -6648510.046        940189.426      -1922747.151
10 0 59256  78540.000000  0      -6743675.745       1045751.833      -1487486.627
10 0 59256  78600.000000  0      -6809641.367       1147632.102      -1045940.366
10 0 59256  78660.000000  0      -6846160.118       1245145.369       -599973.562
10 0 59256  78720.000000  0      -6853115.328       1337623.458       -151470.765
10 0 59256  78780.000000  0      -6830520.865       1424418.874        297672.150
10 0 59256  78840.000000  0      -6778520.998       1504908.716        745556.116
10 0 59256  78900.000000  0      -6697389.619       1578498.489       1190287.065
10 0 59256  78960.000000  0      -6587528.844       1644625.764       1629984.105
10 0 59256  79020.000000  0      -6449467.003       1702763.693       2062787.643
10 0 59256  79080.000000  0      -6283856.020       1752424.329       2486867.405
10 0 59256  79140.000000  0      -6091468.220       1793161.741       2900430.309
99
